TDRS 3                  
1 19548U 88091B   26195.76322642 -.00000308  00000+0  00000+0 0  9998
2 19548  12.5810 340.8177 0037044 355.5136 181.8452  1.00262677125662
FLTSATCOM 8 (USA 46)    
1 20253U 89077A   26195.79779751 -.00000378  00000+0  00000+0 0  9995
2 20253  12.4136 350.9938 0003374  71.3115 283.0366  1.00263206260830
SKYNET 4C               
1 20776U 90079A   26195.63679068 -.00000147  00000+0  00000+0 0  9996
2 20776  13.3294 349.6402 0002769 135.0060 231.5470  0.98578465   311
TDRS 5                  
1 21639U 91054B   26195.63616742  .00000074  00000+0  00000+0 0  9997
2 21639  14.0676 353.5733 0007444 258.0671 102.1744  1.00273266127987
TDRS 6                  
1 22314U 93003B   26195.38346833 -.00000306  00000+0  00000+0 0  9996
2 22314  14.1832 356.8533 0008330 184.0337 203.3691  1.00280051122686
UFO 2 (USA 95)          
1 22787U 93056A   26195.62961729  .00000114  00000+0  00000+0 0  9998
2 22787  11.9044   3.3998 0002528   8.1879 176.1845  1.00270159118826
UFO 4 (USA 108)         
1 23467U 95003A   26195.73575296 -.00000032  00000+0  00000+0 0  9990
2 23467   9.6757  13.0117 0003132  99.7499 257.0700  1.00276252115224
TDRS 7                  
1 23613U 95035B   26195.84191749 -.00000251  00000+0  00000+0 0  9990
2 23613  13.3656 347.9962 0011492  86.4331 250.6166  1.00273971113521
USA 115 (MILSTAR-1 2)   
1 23712U 95060A   26195.46987919 -.00000214  00000+0  00000+0 0  9997
2 23712  14.0825   3.5405 0006041 123.5098 244.4197  1.00272602 33167
INMARSAT 3-F1           
1 23839U 96020A   26195.67699251  .00000039  00000+0  00000+0 0  9990
2 23839  10.6563  46.3767 0004467  88.9573 276.6997  0.99980199110532
INMARSAT 3-F2           
1 24307U 96053A   26195.68907031 -.00000372  00000+0  00000+0 0  9997
2 24307   9.9168  53.6518 0006376  54.6460 194.5765  0.99991824109194
INMARSAT 3-F3           
1 24674U 96070A   26195.83310169  .00000026  00000+0  00000+0 0  9995
2 24674  10.3760  49.3833 0003574  76.9679 120.5902  0.99995121108187
USA 134                 
1 25019U 97065A   26195.57175696 -.00000075  00000+0  00000+0 0  9994
2 25019  12.8161  21.5134 0002548 334.1074  30.2232  1.00273650 33232
INMARSAT 3-F5           
1 25153U 98006B   26195.47707256 -.00000304  00000+0  00000+0 0  9996
2 25153   9.7523  52.9833 0004320  62.0164 295.1157  1.00273231104163
ABS-6                   
1 25924U 99053A   26195.80438421 -.00000128  00000+0  00000+0 0  9991
2 25924   0.0554 261.6167 0003298 193.1951 286.4133  1.00272331 98113
UFO 10 (USA 146)        
1 25967U 99063A   26195.34063120 -.00000200  00000+0  00000+0 0  9999
2 25967   9.8539  27.0633 0001575 117.2371 247.5841  1.00272737 97620
ASIASTAR                
1 26107U 00016A   26195.57982277 -.00000347  00000+0  00000+0 0  9996
2 26107   9.1914  57.8570 0003745  66.9841 121.3484  1.00271402 96192
USA 149 (DSP 20)        
1 26356U 00024A   26195.63740935  .00000085  00000+0  00000+0 0  9999
2 26356  13.1908  11.6532 0001800 311.6608  34.0119  1.00281960 33188
TDRS 8                  
1 26388U 00034A   26195.67730953 -.00000210  00000+0  00000+0 0  9999
2 26388  12.7256  31.0842 0004038  36.4226 193.7113  1.00272459 95456
NSS-11                  
1 26554U 00059A   26195.80776424  .00000014  00000+0  00000+0 0  9990
2 26554   2.1958  81.0612 0002832  40.3570 278.0333  1.00270807 41568
USA 153                 
1 26575U 00065A   26195.45770514 -.00000338  00000+0  00000+0 0  9995
2 26575  11.6701  35.1895 0002084  58.1340 138.2352  1.00272890 33200
AMC-6                   
1 26580U 00067A   26195.74615302  .00000080  00000+0  00000+0 0  9991
2 26580   0.2204  83.6687 0003802  42.8823 299.6126  1.00270640 94164
USA 157 (MILSTAR-2 2)   
1 26715U 01009A   26195.67187916  .00000097  00000+0  00000+0 0  9993
2 26715  11.5725  19.5891 0040500 179.3359 185.3936  1.00274013 33226
INTELSAT 902 (IS-902)   
1 26900U 01039A   26195.94868450 -.00000296  00000+0  00000+0 0  9993
2 26900   6.1844  71.4415 0004230  40.9771 111.8062  1.00272753 90972
USA 164 (MILSTAR-2 3)   
1 27168U 02001A   26195.67932610  .00000086  00000+0  00000+0 0  9996
2 27168  11.2118  21.7353 0098546   8.9880 165.4090  1.00277092 33230
INTELSAT 904 (IS-904)   
1 27380U 02007A   26195.82004185 -.00000239  00000+0  00000+0 0  9993
2 27380   6.9868  68.8486 0005361  25.3691 102.2009  1.00270714 52047
DIRECTV 5 (TEMPO 1)     
1 27426U 02023A   26195.60858678 -.00000069  00000+0  00000+0 0  9993
2 27426   4.9456  74.9668 0003057  45.5469 280.9303  1.00271217 88393
INTELSAT 905 (IS-905)   
1 27438U 02027A   26195.74571968  .00000081  00000+0  00000+0 0  9992
2 27438   6.8205  69.4642 0003461  47.4913 306.8961  1.00271808 51635
GALAXY 3C (G-3C)        
1 27445U 02030A   26195.82544432 -.00000164  00000+0  00000+0 0  9992
2 27445   3.8030  77.6158 0001519  34.2608  23.1303  1.00270689 46770
INTELSAT 906 (IS-906)   
1 27513U 02041A   26195.93566775  .00000000  00000+0  00000+0 0  9994
2 27513   5.8704  72.5782 0003831  24.6066 236.5950  1.00273096 87300
NIMIQ 2                 
1 27632U 02062A   26195.67993919 -.00000082  00000+0  00000+0 0  9995
2 27632   9.5077  56.6044 0005262  54.2637 317.2352  1.00270518 44462
